NORAD_CAT_ID,OBJECT_NAME,OBJECT_TYPE,EPOCH,MEAN_MOTION,ECCENTRICITY,INCLINATION,RA_OF_ASC_NODE,ARG_OF_PERICENTER,MEAN_ANOMALY,BSTAR,MEAN_MOTION_DOT,MEAN_MOTION_DDOT,TLE_LINE0,TLE_LINE1,TLE_LINE2,SEMIMAJOR_AXIS,PERIOD,APOGEE,PERIGEE,DECAYED
52672.0,STARLINK-4073,PAYLOAD,2023-10-12 07:37:10,15.08839589,0.0001546,53.2157,141.7767,83.9279,276.1889,9.166e-05,1.171e-05,0.0,0 STARLINK-4073,1 52672U 22053S   23285.31748074  .00001171  00000-0  91660-4 0  9994,2 52672  53.2157 141.7767 0001546  83.9279 276.1889 15.08839589 77869,6917.882,95.438,540.816,538.677,0.0
52672.0,STARLINK-4073,PAYLOAD,2023-10-12 21:55:38,15.08852725,0.0001452,53.2153,139.1024,89.1813,270.9345,0.00046673,7.15e-05,0.0,0 STARLINK-4073,1 52672U 22053S   23285.91363740  .00007150  00000-0  46673-3 0  9999,2 52672  53.2153 139.1024 0001452  89.1813 270.9345 15.08852725 78373,6917.841,95.437,540.711,538.702,0.0
52672.0,STARLINK-4073,PAYLOAD,2023-10-13 07:27:56,15.08857244,0.0001423,53.2147,137.3167,89.8996,270.2159,0.00055777,8.604e-05,0.0,0 STARLINK-4073,1 52672U 22053S   23286.31107435  .00008604  00000-0  55777-3 0  9991,2 52672  53.2147 137.3167 0001423  89.8996 270.2159 15.08857244 78435,6917.828,95.436,540.677,538.708,0.0
52672.0,STARLINK-4073,PAYLOAD,2023-10-13 21:46:23,15.08885187,0.0001344,53.2144,134.6408,89.1243,270.9904,0.0011693,0.00018393,0.0,0 STARLINK-4073,1 52672U 22053S   23286.90722053  .00018393  00000-0  11693-2 0  9999,2 52672  53.2144 134.6408 0001344  89.1243 270.9904 15.08885187 78522,6917.742,95.435,540.537,538.678,0.0
52672.0,STARLINK-4073,PAYLOAD,2023-10-14 07:18:42,15.08856929,0.0001469,53.2147,132.8558,90.7486,269.3675,3.8976e-05,3.33e-06,0.0,0 STARLINK-4073,1 52672U 22053S   23287.30466127  .00000333  00000-0  38976-4 0  9991,2 52672  53.2147 132.8558 0001469  90.7486 269.3675 15.08856929 78165,6917.829,95.436,540.71,538.677,0.0
52672.0,STARLINK-4073,PAYLOAD,2023-10-14 20:01:48,15.08819813,0.0001658,53.2141,130.4778,92.6682,267.45,-0.00035989,-6.008e-05,0.0,0 STARLINK-4073,1 52672U 22053S   23287.83459337 -.00006008  00000-0 -35989-3 0  9991,2 52672  53.2141 130.4778 0001658  92.6682 267.4500 15.08819813 78242,6917.942,95.439,540.954,538.66,0.0
52672.0,STARLINK-4073,PAYLOAD,2023-10-15 07:09:31,15.0882183,0.0001729,53.2142,128.3955,97.1221,262.9967,0.00085258,0.000133,0.0,0 STARLINK-4073,1 52672U 22053S   23288.29828335  .00013300  00000-0  85258-3 0  9995,2 52672  53.2142 128.3955 0001729  97.1221 262.9967 15.08821830 78737,6917.936,95.439,540.997,538.605,0.0
52672.0,STARLINK-4073,PAYLOAD,2023-10-15 19:52:37,15.08839441,0.0001732,53.2145,126.0163,94.9185,265.2005,0.0011312,0.00017761,0.0,0 STARLINK-4073,1 52672U 22053S   23288.82820721  .00017761  00000-0  11312-2 0  9999,2 52672  53.2145 126.0163 0001732  94.9185 265.2005 15.08839441 78392,6917.882,95.438,540.945,538.549,0.0
52672.0,STARLINK-4073,PAYLOAD,2023-10-16 13:21:51,15.08848709,0.0001726,53.2144,122.7449,95.1509,264.968,0.00071323,0.00011084,0.0,0 STARLINK-4073,1 52672U 22053S   23289.55684680  .00011084  00000-0  71323-3 0  9993,2 52672  53.2144 122.7449 0001726  95.1509 264.9680 15.08848709 78928,6917.854,95.437,540.913,538.525,0.0
52672.0,STARLINK-4073,PAYLOAD,2023-10-16 16:32:37,15.08850589,0.000172,53.2145,122.15,95.1974,264.9215,0.00068294,0.00010601,0.0,0 STARLINK-4073,1 52672U 22053S   23289.68932601  .00010601  00000-0  68294-3 0  9993,2 52672  53.2145 122.1500 0001720  95.1974 264.9215 15.08850589 78520,6917.848,95.437,540.903,538.523,0.0
52672.0,STARLINK-4073,PAYLOAD,2023-10-17 11:37:14,15.08858319,0.0001694,53.2143,118.5812,95.1359,264.9827,0.00055366,8.539e-05,0.0,0 STARLINK-4073,1 52672U 22053S   23290.48419952  .00008539  00000-0  55366-3 0  9995,2 52672  53.2143 118.5812 0001694  95.1359 264.9827 15.08858319 78641,6917.824,95.436,540.861,538.518,0.0
52672.0,STARLINK-4073,PAYLOAD,2023-10-17 19:34:10,15.08849009,0.0001848,53.2142,117.0946,92.1139,268.0064,0.00050641,7.783e-05,0.0,0 STARLINK-4073,1 52672U 22053S   23290.81540238  .00007783  00000-0  50641-3 0  9995,2 52672  53.2142 117.0946 0001848  92.1139 268.0064 15.08849009 78695,6917.853,95.437,540.996,538.439,0.0
52672.0,STARLINK-4073,PAYLOAD,2023-10-18 11:28:02,15.0884197,0.0001682,53.2138,114.1213,94.7939,265.3245,5.6327e-05,6.09e-06,0.0,0 STARLINK-4073,1 52672U 22053S   23291.47780254  .00000609  00000-0  56327-4 0  9990,2 52672  53.2138 114.1213 0001682  94.7939 265.3245 15.08841970 78798,6917.874,95.437,540.903,538.576,0.0
52672.0,STARLINK-4073,PAYLOAD,2023-10-18 22:35:44,15.08844474,0.0001596,53.2146,112.0395,93.1794,266.9381,8.4715e-05,1.061e-05,0.0,0 STARLINK-4073,1 52672U 22053S   23291.94148294  .00001061  00000-0  84715-4 0  9999,2 52672  53.2146 112.0395 0001596  93.1794 266.9381 15.08844474 79286,6917.867,95.437,540.836,538.628,0.0
52672.0,STARLINK-4073,PAYLOAD,2023-10-19 11:18:49,15.08843523,0.0001315,53.2153,109.661,90.7538,269.3605,0.00015036,2.106e-05,0.0,0 STARLINK-4073,1 52672U 22053S   23292.47140219  .00002106  00000-0  15036-3 0  9997,2 52672  53.2153 109.6610 0001315  90.7538 269.3605 15.08843523 79363,6917.87,95.437,540.644,538.825,0.0
52672.0,STARLINK-4073,PAYLOAD,2023-10-19 20:51:07,15.08851966,0.0001563,53.2151,107.8762,92.4636,267.6535,0.00022947,3.367e-05,0.0,0 STARLINK-4073,1 52672U 22053S   23292.86883736  .00003367  00000-0  22947-3 0  9997,2 52672  53.2151 107.8762 0001563  92.4636 267.6535 15.08851966 79422,6917.844,95.437,540.79,538.628,0.0
52672.0,STARLINK-4073,PAYLOAD,2023-10-20 11:09:36,15.08841662,0.0001611,53.2166,105.2016,86.8323,273.2853,2.5529e-05,1.18e-06,0.0,0 STARLINK-4073,1 52672U 22053S   23293.46500193  .00000118  00000-0  25529-4 0  9998,2 52672  53.2166 105.2016 0001611  86.8323 273.2853 15.08841662 79097,6917.875,95.437,540.855,538.626,0.0
52672.0,STARLINK-4073,PAYLOAD,2023-10-20 14:20:22,15.08836995,0.000125,53.2157,104.6049,89.0674,271.0462,-2.1155e-07,-2.91e-06,0.0,0 STARLINK-4073,1 52672U 22053S   23293.59748378 -.00000291  00000-0 -21155-6 0  9998,2 52672  53.2157 104.6049 0001250  89.0674 271.0462 15.08836995 79533,6917.89,95.438,540.619,538.89,0.0
52672.0,STARLINK-4073,PAYLOAD,2023-10-21 17:21:55,15.08844243,0.0001144,53.2159,99.5497,88.3309,271.7814,0.00013317,1.832e-05,0.0,0 STARLINK-4073,1 52672U 22053S   23294.72356074  .00001832  00000-0  13317-3 0  9990,2 52672  53.2159  99.5497 0001144  88.3309 271.7814 15.08844243 79288,6917.867,95.437,540.524,538.941,0.0
52672.0,STARLINK-4073,PAYLOAD,2023-10-21 20:32:41,15.0886166,0.0001579,53.2151,98.9535,103.9334,256.1834,-9.3214e-05,-1.772e-05,0.0,0 STARLINK-4073,1 52672U 22053S   23294.85603025 -.00001772  00000-0 -93214-4 0  9995,2 52672  53.2151  98.9535 0001579 103.9334 256.1834 15.08861660 79720,6917.814,95.436,540.772,538.587,0.0
52672.0,STARLINK-4073,PAYLOAD,2023-10-22 04:29:38,15.08835234,0.0001755,53.2159,97.4676,92.7552,267.3641,0.00011289,1.509e-05,0.0,0 STARLINK-4073,1 52672U 22053S   23295.18724716  .00001509  00000-0  11289-3 0  9990,2 52672  53.2159  97.4676 0001755  92.7552 267.3641 15.08835234 79358,6917.895,95.438,540.974,538.546,0.0
52672.0,STARLINK-4073,PAYLOAD,2023-10-22 17:12:43,15.08832882,0.0001298,53.2159,95.0884,99.8992,260.2147,1.2224e-05,-9.3e-07,0.0,0 STARLINK-4073,1 52672U 22053S   23295.71716855 -.00000093  00000-0  12224-4 0  9993,2 52672  53.2159  95.0884 0001298  99.8992 260.2147 15.08832882 79855,6917.902,95.438,540.665,538.869,0.0
52672.0,STARLINK-4073,PAYLOAD,2023-10-23 12:17:20,15.0883736,0.0001227,53.2155,91.5213,81.1617,278.9514,1.0829e-05,-1.16e-06,0.0,0 STARLINK-4073,1 52672U 22053S   23296.51204685 -.00000116  00000-0  10829-4 0  9990,2 52672  53.2155  91.5213 0001227  81.1617 278.9514 15.08837360 79555,6917.888,95.438,540.602,538.905,0.0
52672.0,STARLINK-4073,PAYLOAD,2023-10-23 21:49:39,15.0884749,0.0001275,53.2162,89.7372,85.7308,274.3829,0.00014028,1.946e-05,0.0,0 STARLINK-4073,1 52672U 22053S   23296.90948514  .00001946  00000-0  14028-3 0  9994,2 52672  53.2162  89.7372 0001275  85.7308 274.3829 15.08847490 80037,6917.857,95.437,540.605,538.84,0.0
52672.0,STARLINK-4073,PAYLOAD,2023-10-25 13:34:18,15.0883985,0.0001311,53.2166,82.3032,92.3788,267.7354,8.5734e-05,1.077e-05,0.0,0 STARLINK-4073,1 52672U 22053S   23298.56549010  .00001077  00000-0  85734-4 0  9994,2 52672  53.2166  82.3032 0001311  92.3788 267.7354 15.08839850 79869,6917.881,95.438,540.653,538.839,0.0
52672.0,STARLINK-4073,PAYLOAD,2023-10-26 13:25:05,15.08840534,0.0001597,53.2192,77.844,91.5067,268.6108,6.7617e-05,7.88e-06,0.0,0 STARLINK-4073,1 52672U 22053S   23299.55909108  .00000788  00000-0  67617-4 0  9990,2 52672  53.2192  77.8440 0001597  91.5067 268.6108 15.08840534 80430,6917.879,95.438,540.849,538.639,0.0
52672.0,STARLINK-4073,PAYLOAD,2023-10-26 16:35:51,15.08841693,0.0001781,53.218,77.2503,98.208,261.9115,0.00019948,2.888e-05,0.0,0 STARLINK-4073,1 52672U 22053S   23299.69157067  .00002888  00000-0  19948-3 0  9990,2 52672  53.2180  77.2503 0001781  98.2080 261.9115 15.08841693 80032,6917.875,95.437,540.972,538.508,0.0
52672.0,STARLINK-4073,PAYLOAD,2023-10-27 08:29:42,15.08849843,0.0001339,53.2175,74.2762,91.5326,268.5819,0.00026364,3.912e-05,0.0,0 STARLINK-4073,1 52672U 22053S   23300.35396585  .00003912  00000-0  26364-3 0  9995,2 52672  53.2175  74.2762 0001339  91.5326 268.5819 15.08849843 80554,6917.85,95.437,540.642,538.789,0.0
52672.0,STARLINK-4073,PAYLOAD,2023-10-27 18:02:01,15.08855124,0.0001282,53.2176,72.4923,88.3102,271.8036,0.00032845,4.945e-05,0.0,0 STARLINK-4073,1 52672U 22053S   23300.75140177  .00004945  00000-0  32845-3 0  9991,2 52672  53.2176  72.4923 0001282  88.3102 271.8036 15.08855124 80194,6917.834,95.437,540.586,538.812,0.0
52672.0,STARLINK-4073,PAYLOAD,2023-10-28 01:58:57,15.08842301,0.0003192,53.2175,71.0043,77.5503,282.5846,9.8389e-05,1.278e-05,0.0,0 STARLINK-4073,1 52672U 22053S   23301.08261277  .00001278  00000-0  98389-4 0  9995,2 52672  53.2175  71.0043 0003192  77.5503 282.5846 15.08842301 80245,6917.873,95.437,541.947,537.53,0.0
